start=new Date('2022-02-04T00:00:00.000Z').valueOf();
sats=[{"REV_AT_EPOCH":"5492","ECCENTRICITY":"0.00021370","OBJECT_ID":"2021-012AG","MEAN_ELEMENT_THEORY":"SGP4","TIME_SYSTEM":"UTC","SEMIMAJOR_AXIS":"6925.338","ELEMENT_SET_NO":"999","COUNTRY_CODE":"US","MEAN_MOTION_DOT":"0.00002308","APOAPSIS":"548.683","TLE_LINE1":"1 47650U 21012AG  22034.69486825  .00002308  00000-0  17377-3 0  9998","MEAN_MOTION":"15.06403529","EPOCH":"2022-02-03T16:40:36.616800","GP_ID":"195259107","CLASSIFICATION_TYPE":"U","PERIOD":"95.592","BSTAR":"0.00017377000000","REF_FRAME":"TEME","OBJECT_NAME":"STARLINK-2033","EPHEMERIS_TYPE":"0","OBJECT_TYPE":"PAYLOAD","NORAD_CAT_ID":"47650","MEAN_MOTION_DDOT":"0.0000000000000","ARG_OF_PERICENTER":"68.6226","RA_OF_ASC_NODE":"282.9177","PERIAPSIS":"545.723","MEAN_ANOMALY":"291.4990","SITE":"AFETR","FILE":"3291273","CENTER_NAME":"EARTH","RCS_SIZE":"LARGE","TLE_LINE2":"2 47650  53.0531 282.9177 0002137  68.6226 291.4990 15.06403529 54929","DECAY_DATE":null,"LAUNCH_DATE":"2021-02-16","INCLINATION":"53.0531"},{"GP_ID":"195259357","CLASSIFICATION_TYPE":"U","PERIOD":"95.592","BSTAR":"0.00005993000000","REF_FRAME":"TEME","OBJECT_NAME":"STARLINK-2035","EPHEMERIS_TYPE":"0","REV_AT_EPOCH":"5466","ECCENTRICITY":"0.00015950","OBJECT_ID":"2021-012AH","MEAN_ELEMENT_THEORY":"SGP4","TIME_SYSTEM":"UTC","SEMIMAJOR_AXIS":"6925.343","COUNTRY_CODE":"US","ELEMENT_SET_NO":"999","MEAN_MOTION_DOT":"0.00000611","APOAPSIS":"548.313","TLE_LINE1":"1 47651U 21012AH  22034.72894626  .00000611  00000-0  59930-4 0  9992","MEAN_MOTION":"15.06401768","EPOCH":"2022-02-03T17:29:40.956864","RCS_SIZE":"LARGE","CENTER_NAME":"EARTH","TLE_LINE2":"2 47651  53.0555 302.7665 0001595  68.5110 291.6048 15.06401768 54667","LAUNCH_DATE":"2021-02-16","DECAY_DATE":null,"INCLINATION":"53.0555","OBJECT_TYPE":"PAYLOAD","NORAD_CAT_ID":"47651","MEAN_MOTION_DDOT":"0.0000000000000","ARG_OF_PERICENTER":"68.5110","RA_OF_ASC_NODE":"302.7665","PERIAPSIS":"546.104","MEAN_ANOMALY":"291.6048","SITE":"AFETR","FILE":"3291273"},{"OBJECT_ID":"2021-012AJ","ECCENTRICITY":"0.00018610","REV_AT_EPOCH":"5466","SEMIMAJOR_AXIS":"6925.322","TIME_SYSTEM":"UTC","MEAN_ELEMENT_THEORY":"SGP4","COUNTRY_CODE":"US","ELEMENT_SET_NO":"999","MEAN_MOTION_DOT":"0.00004987","TLE_LINE1":"1 47652U 21012AJ  22034.75568287  .00004987  00000-0  35338-3 0  9992","EPOCH":"2022-02-03T18:08:10.999968","MEAN_MOTION":"15.06408768","APOAPSIS":"548.475","GP_ID":"195260106","CLASSIFICATION_TYPE":"U","REF_FRAME":"TEME","PERIOD":"95.592","BSTAR":"0.00035338000000","OBJECT_NAME":"STARLINK-2036","EPHEMERIS_TYPE":"0","MEAN_MOTION_DDOT":"0.0000000000000","OBJECT_TYPE":"PAYLOAD","NORAD_CAT_ID":"47652","ARG_OF_PERICENTER":"62.4644","RA_OF_ASC_NODE":"302.6441","PERIAPSIS":"545.898","MEAN_ANOMALY":"297.6534","FILE":"3291273","SITE":"AFETR","RCS_SIZE":"LARGE","CENTER_NAME":"EARTH","TLE_LINE2":"2 47652  53.0552 302.6441 0001861  62.4644 297.6534 15.06408768 54660","LAUNCH_DATE":"2021-02-16","DECAY_DATE":null,"INCLINATION":"53.0552"},{"OBJECT_NAME":"STARLINK-2037","EPHEMERIS_TYPE":"0","CLASSIFICATION_TYPE":"U","GP_ID":"195260359","REF_FRAME":"TEME","BSTAR":"0.00015891000000","PERIOD":"95.592","COUNTRY_CODE":"US","MEAN_MOTION_DOT":"0.00002086","ELEMENT_SET_NO":"999","EPOCH":"2022-02-03T21:11:19.379616","MEAN_MOTION":"15.06394581","TLE_LINE1":"1 47653U 21012AK  22034.88286319  .00002086  00000-0  15891-3 0  9990","APOAPSIS":"548.304","ECCENTRICITY":"0.00015510","OBJECT_ID":"2021-012AK","REV_AT_EPOCH":"5495","SEMIMAJOR_AXIS":"6925.365","MEAN_ELEMENT_THEORY":"SGP4","TIME_SYSTEM":"UTC","LAUNCH_DATE":"2021-02-16","DECAY_DATE":null,"INCLINATION":"53.0545","RCS_SIZE":"LARGE","CENTER_NAME":"EARTH","TLE_LINE2":"2 47653  53.0545 282.0593 0001551  57.4235 302.6904 15.06394581 54955","MEAN_ANOMALY":"302.6904","FILE":"3291273","SITE":"AFETR","OBJECT_TYPE":"PAYLOAD","NORAD_CAT_ID":"47653","MEAN_MOTION_DDOT":"0.0000000000000","ARG_OF_PERICENTER":"57.4235","PERIAPSIS":"546.156","RA_OF_ASC_NODE":"282.0593"},{"APOAPSIS":"548.372","MEAN_MOTION":"15.06420258","EPOCH":"2022-02-03T21:24:34.341696","TLE_LINE1":"1 47654U 21012AL  22034.89206414 -.00002489  00000-0 -14817-3 0  9996","COUNTRY_CODE":"US","MEAN_MOTION_DOT":"-0.00002489","ELEMENT_SET_NO":"999","TIME_SYSTEM":"UTC","MEAN_ELEMENT_THEORY":"SGP4","SEMIMAJOR_AXIS":"6925.286","REV_AT_EPOCH":"5468","OBJECT_ID":"2021-012AL","ECCENTRICITY":"0.00017620","EPHEMERIS_TYPE":"0","OBJECT_NAME":"STARLINK-2038","BSTAR":"-0.00014817000000","PERIOD":"95.591","REF_FRAME":"TEME","GP_ID":"195259607","CLASSIFICATION_TYPE":"U","SITE":"AFETR","FILE":"3291273","MEAN_ANOMALY":"292.2241","PERIAPSIS":"545.931","RA_OF_ASC_NODE":"302.0200","MEAN_MOTION_DDOT":"0.0000000000000","OBJECT_TYPE":"PAYLOAD","NORAD_CAT_ID":"47654","ARG_OF_PERICENTER":"67.8935","INCLINATION":"53.0559","DECAY_DATE":null,"LAUNCH_DATE":"2021-02-16","TLE_LINE2":"2 47654  53.0559 302.0200 0001762  67.8935 292.2241 15.06420258 54684","CENTER_NAME":"EARTH","RCS_SIZE":"LARGE"},{"RA_OF_ASC_NODE":"305.3356","PERIAPSIS":"545.970","OBJECT_TYPE":"PAYLOAD","NORAD_CAT_ID":"47655","MEAN_MOTION_DDOT":"0.0000000000000","ARG_OF_PERICENTER":"67.2152","FILE":"3291268","SITE":"AFETR","MEAN_ANOMALY":"292.9023","TLE_LINE2":"2 47655  53.0551 305.3356 0001769  67.2152 292.9023 15.06405875 54578","RCS_SIZE":"LARGE","CENTER_NAME":"EARTH","INCLINATION":"53.0551","LAUNCH_DATE":"2021-02-16","DECAY_DATE":null,"SEMIMAJOR_AXIS":"6925.331","MEAN_ELEMENT_THEORY":"SGP4","TIME_SYSTEM":"UTC","OBJECT_ID":"2021-012AM","ECCENTRICITY":"0.00017690","REV_AT_EPOCH":"5457","TLE_LINE1":"1 47655U 21012AM  22034.15487536  .00002329  00000-0  17519-3 0  9995","MEAN_MOTION":"15.06405875","EPOCH":"2022-02-03T03:43:01.231104","APOAPSIS":"548.421","ELEMENT_SET_NO":"999","COUNTRY_CODE":"US","MEAN_MOTION_DOT":"0.00002329","REF_FRAME":"TEME","PERIOD":"95.592","BSTAR":"0.00017519000000","GP_ID":"195235373","CLASSIFICATION_TYPE":"U","EPHEMERIS_TYPE":"0","OBJECT_NAME":"STARLINK-2039"},{"ECCENTRICITY":"0.00020230","OBJECT_ID":"2021-012AN","REV_AT_EPOCH":"5495","SEMIMAJOR_AXIS":"6925.331","TIME_SYSTEM":"UTC","MEAN_ELEMENT_THEORY":"SGP4","MEAN_MOTION_DOT":"0.00003891","COUNTRY_CODE":"US","ELEMENT_SET_NO":"999","TLE_LINE1":"1 47656U 21012AN  22034.83494106  .00003891  00000-0  27996-3 0  9997","EPOCH":"2022-02-03T20:02:18.907584","MEAN_MOTION":"15.06405886","APOAPSIS":"548.597","CLASSIFICATION_TYPE":"U","GP_ID":"195260606","REF_FRAME":"TEME","PERIOD":"95.592","BSTAR":"0.00027996000000","OBJECT_NAME":"STARLINK-2040","EPHEMERIS_TYPE":"0","MEAN_MOTION_DDOT":"0.0000000000000","OBJECT_TYPE":"PAYLOAD","NORAD_CAT_ID":"47656","ARG_OF_PERICENTER":"60.6935","RA_OF_ASC_NODE":"282.2801","PERIAPSIS":"545.795","MEAN_ANOMALY":"299.4256","FILE":"3291273","SITE":"AFETR","CENTER_NAME":"EARTH","RCS_SIZE":"LARGE","TLE_LINE2":"2 47656  53.0546 282.2801 0002023  60.6935 299.4256 15.06405886 54955","DECAY_DATE":null,"LAUNCH_DATE":"2021-02-16","INCLINATION":"53.0546"},{"APOAPSIS":"548.348","TLE_LINE1":"1 47657U 21012AP  22034.84046123  .00000675  00000-0  64177-4 0  9991","EPOCH":"2022-02-03T20:10:15.850272","MEAN_MOTION":"15.06401655","COUNTRY_CODE":"US","MEAN_MOTION_DOT":"0.00000675","ELEMENT_SET_NO":"999","TIME_SYSTEM":"UTC","MEAN_ELEMENT_THEORY":"SGP4","SEMIMAJOR_AXIS":"6925.343","REV_AT_EPOCH":"5467","OBJECT_ID":"2021-012AP","ECCENTRICITY":"0.00016450","EPHEMERIS_TYPE":"0","OBJECT_NAME":"STARLINK-2041","PERIOD":"95.592","BSTAR":"0.00006417700000","REF_FRAME":"TEME","GP_ID":"195260859","CLASSIFICATION_TYPE":"U","SITE":"AFETR","FILE":"3291273","MEAN_ANOMALY":"292.8626","RA_OF_ASC_NODE":"302.2658","PERIAPSIS":"546.069","OBJECT_TYPE":"PAYLOAD","NORAD_CAT_ID":"47657","MEAN_MOTION_DDOT":"0.0000000000000","ARG_OF_PERICENTER":"67.2537","INCLINATION":"53.0553","DECAY_DATE":null,"LAUNCH_DATE":"2021-02-16","TLE_LINE2":"2 47657  53.0553 302.2658 0001645  67.2537 292.8626 15.06401655 54674","CENTER_NAME":"EARTH","RCS_SIZE":"LARGE"},{"CENTER_NAME":"EARTH","RCS_SIZE":"LARGE","TLE_LINE2":"2 47658  53.0540 302.2950 0001654  63.8376 296.2782 15.06410438 54691","LAUNCH_DATE":"2021-02-16","DECAY_DATE":null,"INCLINATION":"53.0540","MEAN_MOTION_DDOT":"0.0000000000000","OBJECT_TYPE":"PAYLOAD","NORAD_CAT_ID":"47658","ARG_OF_PERICENTER":"63.8376","RA_OF_ASC_NODE":"302.2950","PERIAPSIS":"546.036","MEAN_ANOMALY":"296.2782","SITE":"AFETR","FILE":"3291273","GP_ID":"195259108","CLASSIFICATION_TYPE":"U","PERIOD":"95.591","BSTAR":"0.00024771000000","REF_FRAME":"TEME","OBJECT_NAME":"STARLINK-2042","EPHEMERIS_TYPE":"0","REV_AT_EPOCH":"5469","ECCENTRICITY":"0.00016540","OBJECT_ID":"2021-012AQ","TIME_SYSTEM":"UTC","MEAN_ELEMENT_THEORY":"SGP4","SEMIMAJOR_AXIS":"6925.317","COUNTRY_CODE":"US","MEAN_MOTION_DOT":"0.00003411","ELEMENT_SET_NO":"999","APOAPSIS":"548.327","TLE_LINE1":"1 47658U 21012AQ  22034.83309566  .00003411  00000-0  24771-3 0  9990","EPOCH":"2022-02-03T19:59:39.465024","MEAN_MOTION":"15.06410438"},{"CLASSIFICATION_TYPE":"U","GP_ID":"195259358","REF_FRAME":"TEME","PERIOD":"95.591","BSTAR":"-0.00117240000000","OBJECT_NAME":"STARLINK-2043","EPHEMERIS_TYPE":"0","OBJECT_ID":"2021-012AR","ECCENTRICITY":"0.00020890","REV_AT_EPOCH":"359","SEMIMAJOR_AXIS":"6925.311","TIME_SYSTEM":"UTC","MEAN_ELEMENT_THEORY":"SGP4","MEAN_MOTION_DOT":"-0.00017708","COUNTRY_CODE":"US","ELEMENT_SET_NO":"999","TLE_LINE1":"1 47659U 21012AR  22034.91668981 -.00017708  00000-0 -11724-2 0  9998","EPOCH":"2022-02-03T22:00:01.999584","MEAN_MOTION":"15.06412322","APOAPSIS":"548.622","RCS_SIZE":"LARGE","CENTER_NAME":"EARTH","TLE_LINE2":"2 47659  53.0542 181.9038 0002089  86.9800 226.7210 15.06412322  3595","DECAY_DATE":null,"LAUNCH_DATE":"2021-02-16","INCLINATION":"53.0542","NORAD_CAT_ID":"47659","OBJECT_TYPE":"PAYLOAD","MEAN_MOTION_DDOT":"0.0000000000000","ARG_OF_PERICENTER":"86.9800","RA_OF_ASC_NODE":"181.9038","PERIAPSIS":"545.729","MEAN_ANOMALY":"226.7210","FILE":"3291273","SITE":"AFETR"}];
